STARLINK-37364          
1 68783U 26086T   26117.37065507  .00040421  28761-5  93434-4 0  9991
2 68783  97.2785 152.7891 0002075 156.5624 203.5748 15.97461257  1151
