{
  "norad_id": 68783,
  "name": "STARLINK-37364",
  "history": [
    {
      "epoch": "2026-04-27T08:53:44.598048Z",
      "apogee_km": 282.84715722343753,
      "perigee_km": 280.0831559443686,
      "latitude_deg": -1.694904178766028e-06,
      "longitude_deg": 163.99183850992242,
      "height_km": 285.93047348697905,
      "semi_major_axis_km": 6659.602156583903,
      "eccentricity": 0.00020752,
      "inclination_deg": 97.2785,
      "raan_deg": 152.7891,
      "arg_perigee_deg": 156.5624,
      "mean_anomaly_deg": 203.5748,
      "mean_motion_rev_day": 15.97461257
    }
  ]
}